IRIDIUM 155             
1 43573U 18061E   25140.31433398  .00000029  00000+0  34344-5 0  9997
2 43573  86.4003 220.8083 0002478 101.9155 258.2318 14.34216534357042
IRIDIUM 154             
1 43574U 18061F   25140.57438127  .00000205  00000+0  66100-4 0  9991
2 43574  86.4009 220.8138 0002321  95.9133 264.2327 14.34217367357137
IRIDIUM 163             
1 43575U 18061G   25140.62512158 -.00000001  00000+0 -75946-5 0  9990
2 43575  86.4007 220.7204 0002088  99.5579 260.5853 14.34217511357115
IRIDIUM 156             
1 43576U 18061H   25140.52998371 -.00000006  00000+0 -91121-5 0  9993
2 43576  86.4008 220.7670 0002546 100.0691 260.0792 14.34217475357099
IRIDIUM 164             
1 43577U 18061J   25140.30164986  .00000014  00000+0 -22430-5 0  9992
2 43577  86.4005 220.8963 0002503  90.0451 270.1031 14.34217689357105
IRIDIUM 159             
1 43578U 18061K   25140.47924193 -.00000015  00000+0 -12521-4 0  9996
2 43578  86.4008 220.7673 0002039  90.4964 269.6465 14.34217481357095
IRIDIUM 180             
1 43922U 19002A   25140.54850592  .00000067  00000+0  17013-4 0  9990
2 43922  86.3979 157.7245 0002244  92.8836 267.2617 14.34217846332710
IRIDIUM 176             
1 43923U 19002B   25140.57752577  .00000370  00000+0  54759-4 0  9993
2 43923  86.6105 157.7084 0002378 107.2356 252.9122 14.72251456341485
IRIDIUM 168             
1 43924U 19002C   25140.54216373  .00000030  00000+0  37136-5 0  9994
2 43924  86.3982 157.7933 0002333  91.4235 268.7228 14.34217413332698
IRIDIUM 173             
1 43925U 19002D   25140.52947818  .00000037  00000+0  60925-5 0  9997
2 43925  86.3978 157.7038 0002252  95.3180 264.8272 14.34217525332670
IRIDIUM 169             
1 43926U 19002E   25140.54036470  .00000310  00000+0  94960-4 0  9992
2 43926  86.4269 189.2720 0003105 120.5686 239.5819 14.38609181333778
IRIDIUM 172             
1 43927U 19002F   25140.52313451  .00000076  00000+0  20028-4 0  9991
2 43927  86.3978 157.7132 0001997  89.7664 270.3761 14.34217652332683
IRIDIUM 175             
1 43928U 19002G   25140.36851747  .00001069  00000+0  16548-3 0  9993
2 43928  86.1480 111.8948 0003478  92.0683 268.0932 14.72250887341447
IRIDIUM 171             
1 43929U 19002H   25140.57387782  .00000002  00000+0 -63591-5 0  9999
2 43929  86.3994 157.9545 0002579  87.8340 272.3151 14.34217028332682
IRIDIUM 170             
1 43930U 19002J   25140.51574588  .00000365  00000+0  53999-4 0  9998
2 43930  86.6106 157.7391 0002785  98.3590 261.7943 14.72255625341488
IRIDIUM 167             
1 43931U 19002K   25140.56753500  .00000033  00000+0  46200-5 0  9997
2 43931  86.3980 157.7136 0002814  92.7420 267.4098 14.34217483332680
IRIDIUM 181             
1 56726U 23068S   25140.49411412  .00000371  00000+0  10428-3 0  9991
2 56726  86.4544 220.7902 0002710  83.0499 277.1010 14.43311492105796
IRIDIUM 177             
1 56727U 23068T   25140.55724949  .00000479  00000+0  59562-4 0  9993
2 56727  86.1972 155.2410 0002756  89.2987 270.8550 14.80225877108283
IRIDIUM 174             
1 56728U 23068U   25140.57140527  .00000398  00000+0  59227-4 0  9998
2 56728  86.6114 157.8231 0002025  94.9902 265.1546 14.72269085108254
IRIDIUM 178             
1 56729U 23068V   25140.54634652  .00001151  00000+0  14809-3 0  9997
2 56729  86.6588 189.3634 0002223  90.8446 269.3030 14.80235214108288
IRIDIUM 179             
1 56730U 23068W   25140.54096916  .00001147  00000+0  14743-3 0  9996
2 56730  86.6831 197.1519 0002630  96.5342 263.6179 14.80240933108285
